ONEWEB-0291             
1 49081U 21075G   24195.38582468  .00000126  00000+0  29070-3 0  9991
2 49081  87.9178 146.0006 0001862  85.4148 274.7196 13.17649872140928
ONEWEB-0293             
1 49082U 21075H   24195.56353474  .00000065  00000+0  13314-3 0  9991
2 49082  87.9183 145.9808 0001776  81.6594 278.4739 13.17650779140977
ONEWEB-0294             
1 49083U 21075J   24195.58414611  .00000531  00000+0  14406-2 0  9995
2 49083  87.8949 130.7829 0001334  80.9198 279.2081 13.12441971142286
ONEWEB-0295             
1 49084U 21075K   24195.56517555 -.00000964  00000+0 -25167-2 0  9993
2 49084  87.9184 145.9583 0001981  93.1340 267.0018 13.17639204140935
ONEWEB-0296             
1 49085U 21075L   24195.56468153  .00000116  00000+0  28595-3 0  9999
2 49085  87.8952 130.7880 0001473  97.6122 262.5173 13.12445487142288
ONEWEB-0297             
1 49086U 21075M   24195.51925655  .00000232  00000+0  60950-3 0  9990
2 49086  87.8961 130.8056 0002084  81.1299 279.0066 13.12443639142884
ONEWEB-0298             
1 49087U 21075N   24195.56839446  .00000099  00000+0  22195-3 0  9998
2 49087  87.9186 145.9762 0002169  87.5317 272.6063 13.17648668140968
ONEWEB-0299             
1 49088U 21075P   24195.56999939  .00000057  00000+0  11243-3 0  9999
2 49088  87.9179 145.9440 0002069  89.7275 270.4093 13.17651898140946
